C/2020 U4 (PANSTARRS),h,04/08.2912/2022,167.0361,120.0229,69.5766,1.001605,5.353968,2000,7.0,4.0
# From MPEC 2022-S20
C/2020 U5 (PANSTARRS),e,97.2700,107.3324,75.4242,4320,0.0000035,0.99913048,0.0000,04/27.9259/2022,2000,g  8.0,4.0
# From MPEC 2022-S20
C/2020 V2 (ZTF),h,05/08.5472/2023,131.6111,212.3711,162.4235,1.000945,2.227936,2000,4.9,4.0
# From MPEC 2021-N06
P/2020 V3 (PANSTARRS),e,23.0323,198.2531,249.3719,8.378440,0.0406405,0.25640043,23.8877,09/20.0/2022,2000,g  8.3,4.0
# From MPEC 2022-K19
P/2020 V4 (Rankin),e,14.2436,203.4866,257.0032,9.359772,0.0344196,0.44994571,14.7704,09/20.0/2022,2000,g  9.0,4.0
# From MPEC 2021-BE3
P/2020 W1 (Rankin),e,10.7895,124.2685,265.0245,7.209843,0.0509114,0.26620288,45.6043,09/20.0/2022,2000,g 10.0,4.0
# From MPEC 2021-BE3
C/2020 W5 (Lemmon),h,11/30.0599/2020,88.5876,75.4856,24.4842,1.000668,3.364579,2000,15.0,4.0
# From MPEC 2022-L66
P/2020 WJ5 (Lemmon),e,22.2945,177.8108,338.2668,6.016613,0.0667845,0.17126365,29.7326,09/20.0/2022,2000,g  8.5,4.0
# From MPEC 2021-P47
P/2020 X1 (ATLAS),e,31.6926,56.0029,323.3620,4.529131,0.1022543,0.36555598,80.9141,09/20.0/2022,2000,g 13.0,4.0
# From MPEC 2021-U31
C/2020 X2 (ATLAS),e,18.1864,105.4393,347.3473,16.43082,0.0147984,0.76706021,9.9609,09/20.0/2022,2000,g 10.6,4.0
# From MPEC 2021-S45
C/2020 X4 (Leonard),e,80.6083,161.8831,140.3022,40.99434,0.0037551,0.87264747,2.5262,09/20.0/2022,2000,g  9.0,4.0
# From MPEC 2022-S20
C/2020 Y2 (ATLAS),e,101.2978,26.5152,266.1064,1045,0.0000292,0.99700166,0.0000,06/17.7001/2022,2000,g  6.5,4.0
# From MPEC 2021-R75
C/2020 Y3 (ATLAS),e,83.1010,191.4415,341.9916,145.3249,0.0005626,0.98625269,0.0000,12/03.3804/2020,2000,g 13.5,4.0
# From MPEC 2022-H04
C/2021 A1 (Leonard),e,132.6906,255.8962,225.0954,25148,0.0000002,0.99997553,0.0000,01/03.2895/2022,2000,g  8.5,4.0
# From MPEC 2022-F14
C/2021 A2 (NEOWISE),e,106.9797,125.2219,338.8050,239.7118,0.0002656,0.99410842,0.0000,01/22.5331/2021,2000,g 13.5,4.0
# From MPEC 2022-ED3
C/2021 A4 (NEOWISE),e,111.5323,307.1134,204.7046,42.63323,0.0035406,0.97310065,0.0000,03/19.8895/2021,2000,g 16.0,4.0
# From MPEC 2021-BE3
P/2021 A5 (PANSTARRS),e,18.1861,328.7675,61.2719,3.047499,0.1852630,0.13988073,125.3706,09/20.0/2022,2000,g 15.0,4.0
# From MPEC 2022-K19
C/2021 A6 (PANSTARRS),e,75.6105,164.0788,351.6647,10037,0.0000010,0.99921017,0.0000,05/03.7031/2021,2000,g  7.0,4.0
# From MPEC 2022-M88
C/2021 A7 (NEOWISE),e,78.1500,154.5150,356.0317,3186,0.0000055,0.99938267,0.0000,07/15.2522/2021,2000,g 10.0,4.0
# From MPEC 2022-K19
C/2021 A9 (PANSTARRS),h,12/01.3976/2023,158.0226,314.8431,211.4527,1.003074,7.760283,2000,6.0,4.0
# From MPEC 2021-N06
C/2021 A10 (NEOWISE),e,151.9104,188.6588,82.3712,89.75217,0.0011591,0.98593207,0.0000,03/15.2714/2021,2000,g 19.0,4.0
# From MPEC 2022-L66
C/2021 B2 (PANSTARRS),e,38.0879,120.5431,334.9655,353.6481,0.0001482,0.99289586,0.0000,05/04.2885/2021,2000,g 14.0,4.0
# From MPEC 2021-N06
C/2021 B3 (NEOWISE),e,119.4813,67.2854,293.5484,34.69051,0.0048238,0.93772282,2.6927,09/20.0/2022,2000,g 13.5,4.0
# From MPEC 2022-ED3
C/2021 C1 (Rankin),e,143.0455,186.8995,336.2763,32484,0.0000002,0.99989288,0.0000,12/07.0465/2020,2000,g 11.5,4.0
# From MPEC 2021-U31
P/2021 C2 (PANSTARRS),e,21.9314,66.4688,78.7504,9.534427,0.0334782,0.48724635,19.1903,09/20.0/2022,2000,g 12.0,4.0
# From MPEC 2021-N06
C/2021 C3 (Catalina),e,122.1643,181.9280,357.1072,62.55132,0.0019923,0.96362641,1.1648,09/20.0/2022,2000,g 14.0,4.0
# From MPEC 2022-M88
C/2021 C4 (ATLAS),e,132.8533,194.2775,320.2225,242064,0.0000000,0.99998140,0.0000,01/17.1059/2021,2000,g  9.0,4.0
# From MPEC 2022-QD9
C/2021 C5 (PANSTARRS),e,50.7823,323.6869,270.9205,3024,0.0000059,0.99892804,0.0000,02/11.0756/2023,2000,g  9.0,4.0
# From MPEC 2022-F14
C/2021 C6 (Lemmon),h,11/13.2602/2021,164.6257,332.1546,203.5520,1.001240,3.271187,2000,12.0,4.0
# From MPEC 2022-F14
C/2021 D1 (SWAN),e,31.4462,311.2593,72.2517,99.16220,0.0009981,0.99090459,0.0000,02/27.6898/2021,2000,g 13.0,4.0
# From MPEC 2022-P82
C/2021 D2 (ZTF),h,02/03.9852/2022,83.8256,305.6806,125.0289,1.001671,2.946281,2000,9.0,4.0
# From MPEC 2021-N06
A/2021 E2,e,167.4883,190.8231,342.4277,231.9545,0.0002790,0.99014282,0.0000,12/10.4514/2020,2000,g 15.0,2.0
# From MPEC 2022-S20
C/2021 E3 (ZTF),h,06/11.9126/2022,112.5549,104.4700,228.8517,1.000904,1.777392,2000,8.5,4.0
# From MPEC 2022-M88
A/2021 E4,e,116.3614,171.1737,48.2688,641.2620,0.0000607,0.99270820,0.0000,04/25.2544/2022,2000,g 13.5,2.0
# From MPEC 2022-QD9
C/2021 F1 (Lemmon-PANSTARRS),e,107.3263,203.4533,146.8186,232.7941,0.0002775,0.99572406,0.0000,04/06.8683/2022,2000,g 13.5,4.0
# From MPEC 2021-J72
C/2021 G1 (Leonard),e,131.5556,270.6999,107.4642,74.70741,0.0015264,0.95417769,0.6485,09/20.0/2022,2000,g 14.0,4.0
# From MPEC 2022-L66
C/2021 G2 (ATLAS),e,48.4726,221.1046,343.3529,4357,0.0000034,0.99885704,0.0000,09/09.9037/2024,2000,g  5.5,4.0
# From MPEC 2022-M21
C/2021 G3 (PANSTARRS),h,10/18.3714/2021,102.8797,147.4151,10.6212,1.000704,5.180729,2000,10.5,4.0
# From MPEC 2021-Y10
P/2021 HS (PANSTARRS),e,12.1678,262.3892,46.0990,4.194532,0.1147305,0.81001880,47.0000,09/20.0/2022,2000,g 22.0,4.0
# From MPEC 2022-C56
C/2021 J1 (Maury-Attard),e,92.7212,88.3384,147.3328,26.42094,0.0072574,0.93410539,4.1917,09/20.0/2022,2000,g 15.5,4.0
# From MPEC 2022-M88
C/2021 J2 (PANSTARRS),e,156.2121,23.3326,172.0474,118.0146,0.0007688,0.96012235,0.2788,09/20.0/2022,2000,g 12.0,4.0
# From MPEC 2021-S45
P/2021 J3 (ATLAS),e,14.5388,111.1778,126.0507,8.939733,0.0368737,0.44970111,43.2541,09/20.0/2022,2000,g  7.0,4.0
# From MPEC 2022-O08
C/2021 K1 (ATLAS),e,16.2757,140.9025,184.2799,12.68622,0.0218125,0.80309964,10.9850,09/20.0/2022,2000,g 11.0,4.0
# From MPEC 2022-O01
C/2021 K2 (MASTER),h,09/09.4202/2021,100.8492,282.2468,343.3537,1.001082,5.467635,2000,8.0,4.0
# From MPEC 2022-L66
C/2021 K3 (Catalina),h,02/03.0056/2022,134.7763,114.4532,182.0334,1.002975,5.229748,2000,10.0,4.0
# From MPEC 2021-W31
P/2021 L2 (Leonard),e,21.0699,266.6569,51.5136,4.049644,0.1209425,0.52132664,51.1104,09/20.0/2022,2000,g 17.0,4.0
# From MPEC 2022-O01
C/2021 L3 (Borisov),h,02/13.7716/2022,78.5798,344.9706,91.5987,1.002419,8.457830,2000,6.0,4.0
# From MPEC 2022-QD9
P/2021 L4 (PANSTARRS),e,16.9601,243.2179,234.5128,3.165511,0.1750001,0.11842895,194.7755,09/20.0/2022,2000,g 13.5,4.0
# From MPEC 2021-P47
P/2021 N1 (ZTF),e,11.5028,301.1688,21.2117,2.977736,0.1918115,0.67662625,90.2442,09/20.0/2022,2000,g 19.0,4.0
# From MPEC 2022-S20
P/2021 N2 (Fuls),e,13.0620,221.7402,177.3910,6.934671,0.0539716,0.45246441,16.7544,09/20.0/2022,2000,g  9.5,4.0
# From MPEC 2022-OB6
C/2021 N3 (PANSTARRS),e,26.7423,337.4938,304.7499,156.7628,0.0005022,0.96354608,0.3822,09/20.0/2022,2000,g  8.5,4.0
# From MPEC 2022-A21
C/2021 O1 (Nishimura),e,27.5817,41.6122,74.4289,2399,0.0000084,0.99967224,0.0000,08/13.9448/2021,2000,g 10.5,4.0
# From MPEC 2022-L66
C/2021 O3 (PANSTARRS),h,04/21.0462/2022,56.7939,189.0187,299.9840,1.000091,0.287306,2000,10.5,4.0
# From MPEC 2022-CN4
C/2021 P1 (PANSTARRS),e,51.6365,359.6763,40.4390,2711,0.0000070,0.99838656,0.0000,06/02.2404/2022,2000,g 11.0,4.0
# From MPEC 2022-S20
C/2021 P2 (PANSTARRS),e,150.0625,32.0749,76.6615,2719,0.0000070,0.99813539,0.0000,01/22.4984/2023,2000,g  9.0,4.0
# From MPEC 2021-W31
P/2021 P3 (PANSTARRS),e,27.1617,358.2397,334.1092,4.413542,0.1062975,0.33937246,50.7698,09/20.0/2022,2000,g 14.0,4.0
# From MPEC 2022-P82
C/2021 P4 (ATLAS),e,56.3106,348.0944,175.8186,322.4860,0.0001702,0.99664962,0.0000,07/30.3672/2022,2000,g  9.5,4.0
# From MPEC 2022-GA9
C/2021 Q3 (ATLAS),e,77.7721,307.9074,114.0967,75.31298,0.0015080,0.93089362,0.3572,09/20.0/2022,2000,g  8.0,4.0
# From MPEC 2022-S20
C/2021 Q4 (Fuls),h,06/09.8683/2023,71.4727,183.3339,146.9599,1.003272,7.565055,2000,6.0,4.0
# From MPEC 2022-C56
P/2021 Q5 (ATLAS),e,10.7356,239.7602,180.9087,3.286305,0.1654407,0.62440186,63.7819,09/20.0/2022,2000,g 15.0,4.0
# From MPEC 2022-S20
C/2021 Q6 (PANSTARRS),e,161.8476,133.5332,140.8846,12022,0.0000007,0.99927542,0.0000,03/22.7285/2024,2000,g  6.0,4.0
# From MPEC 2022-S20
C/2021 QM45 (PANSTARRS),e,22.8224,354.5887,72.8072,351.8535,0.0001493,0.99211817,0.0000,08/13.4432/2022,2000,g 11.0,4.0
# From MPEC 2022-OB6
P/2021 R1 (PANSTARRS),e,5.5197,143.3819,220.3689,8.370665,0.0406972,0.41630820,11.2461,09/20.0/2022,2000,g 11.0,4.0
# From MPEC 2022-O08
C/2021 R2 (PANSTARRS),e,134.4805,16.2938,32.3972,2465,0.0000081,0.99703282,0.0000,12/26.2774/2021,2000,g  7.5,4.0
# From MPEC 2021-W31
P/2021 R3 (PANSTARRS),e,19.9269,304.2114,2.8369,3.774062,0.1344282,0.33127646,64.7473,09/20.0/2022,2000,g 16.0,4.0
# From MPEC 2021-W31
P/2021 R4 (Wierzchos),e,21.0392,321.2580,56.6530,5.619230,0.0739927,0.58599083,25.2320,09/20.0/2022,2000,g 16.0,4.0
# From MPEC 2022-CN4
P/2021 R5 (Rankin),e,7.8547,219.9597,167.3945,4.793485,0.0939133,0.30678837,23.5476,09/20.0/2022,2000,g 12.0,4.0
# From MPEC 2021-W31
P/2021 R6 (Groeller),e,34.9269,176.1142,220.7549,6.275848,0.0626896,0.59328294,20.2505,09/20.0/2022,2000,g 14.5,4.0
# From MPEC 2022-R68
C/2021 R7 (PANSTARRS),e,158.8459,170.1424,140.2618,951.6575,0.0000336,0.99406342,0.0000,04/16.5882/2021,2000,g 10.5,4.0
# From MPEC 2021-Y10
P/2021 R8 (Sheppard),e,2.2034,167.0279,190.7840,3.017117,0.1880684,0.29359585,65.3608,09/20.0/2022,2000,g 18.5,4.0
# From MPEC 2022-L66
C/2021 S1 (ATLAS),h,02/28.8870/2022,52.0822,299.8770,148.1798,1.001445,6.119210,2000,7.0,4.0
# From MPEC 2022-S20
C/2021 S3 (PANSTARRS),e,58.5354,215.6279,6.8894,12543,0.0000007,0.99989481,0.0000,02/14.7643/2024,2000,g  5.5,4.0
# From MPEC 2022-S20
C/2021 S4 (Tsuchinshan),e,17.4800,5.4971,72.7525,164.0077,0.0004693,0.95919676,359.7804,09/20.0/2022,2000,g  6.5,4.0
# From MPEC 2022-OB6
C/2021 T1 (Lemmon),e,140.3514,56.8347,51.5207,1261,0.0000220,0.99757560,0.0000,10/14.0541/2021,2000,g 12.5,4.0
# From MPEC 2022-ED3
C/2021 T2 (Fuls),h,06/07.8939/2022,117.5305,223.2320,263.5942,1.000228,1.247718,2000,12.0,4.0
# From MPEC 2022-S20
C/2021 T4 (Lemmon),h,07/31.5059/2023,160.7598,257.8070,329.7755,1.000078,1.482222,2000,7.5,4.0
